{
  "norad_id": 50474,
  "name": "ONEWEB-0394",
  "history": [
    {
      "epoch": "2026-03-28T17:52:16.028544",
      "apogee_km": 1190.9407423546108,
      "perigee_km": 1188.5282562780585,
      "latitude_deg": -36.099005439527666,
      "longitude_deg": 18.884476159932092,
      "semi_major_axis_km": 7567.871499316334,
      "eccentricity": 0.00015939,
      "inclination_deg": 87.9247,
      "raan_deg": 351.4263,
      "arg_perigee_deg": 80.0732,
      "mean_anomaly_deg": 280.058,
      "mean_motion_rev_day": 13.18688255
    },
    {
      "epoch": "2026-03-29T04:47:50.299872",
      "apogee_km": 1190.9364660195633,
      "perigee_km": 1188.528369970756,
      "latitude_deg": -84.26910781272281,
      "longitude_deg": 62.58922207984142,
      "semi_major_axis_km": 7567.869417995159,
      "eccentricity": 0.0001591,
      "inclination_deg": 87.9246,
      "raan_deg": 351.3361,
      "arg_perigee_deg": 80.2385,
      "mean_anomaly_deg": 279.8927,
      "mean_motion_rev_day": 13.18688799
    }
  ]
}